GLOBALSTAR M057         
1 25943U 99058A   24246.85668243 -.00000002  00000+0  82747-3 0  9997
2 25943  51.9973  83.6259 0002839 126.5926 233.5185 12.24793914131728
GLOBALSTAR M059         
1 25944U 99058B   24247.40118194 -.00000058  00000+0  34846-3 0  9993
2 25944  51.9997 263.0159 0000375 101.1848  44.4857 11.99965044128360
GLOBALSTAR M056         
1 25945U 99058C   24247.35315591 -.00000040  00000+0  55200-3 0  9996
2 25945  51.9946 272.4696 0000644 323.9482  48.7873 12.04777050128092
GLOBALSTAR M031         
1 25946U 99058D   24246.97196123  .00000014  00000+0  10635-2 0  9994
2 25946  51.9949 183.0304 0001555 334.2174 102.3769 12.16015299129606
GLOBALSTAR M039         
1 25961U 99062A   24247.45094313 -.00000054  00000+0  27906-3 0  9993
2 25961  51.9848  62.0418 0003586  76.2594 283.8672 12.62301805144032
GLOBALSTAR M034         
1 25962U 99062B   24246.92104687 -.00000051  00000+0  47141-3 0  9991
2 25962  51.9896  38.1036 0013500 216.1741 266.8217 11.79431915104497
GLOBALSTAR M029         
1 25963U 99062C   24246.95968326 -.00000050  00000+0  44978-3 0  9997
2 25963  51.9796 152.4911 0002170 285.6094 156.5411 11.99882886134642
GLOBALSTAR M061         
1 25964U 99062D   24246.70960711 -.00000094  00000+0 -22493-3 0  9998
2 25964  51.9761 218.8781 0005842 142.9643  28.7275 11.76764528 87339
